ECHOSTAR 21             
1 42749U 17032A   17345.63284422  .00000050  00000-0  00000+0 0  9994
2 42749   7.1950 318.6441 0002701 286.8703  73.1185  1.00270481  1943
